{"type": "FeatureCollection", "features": [ {"type": "Feature", "properties": {"norad_id": 40697, "name": "SENTINEL-2A", "group": "resource", "lat": 58.797388694566905, "lon": 42.56559839284034, "alt_km": 782.6130385811066, "timestamp": "2025-12-10T09:57:44.361574+00:00", "meta": {"OBJECT_NAME": "SENTINEL-2A", "OBJECT_ID": "2015-028A", "EPOCH": "2025-12-10T04:38:54.729600", "MEAN_MOTION": 14.30825658, "ECCENTRICITY": 0.0001043, "INCLINATION": 98.5691, "RA_OF_ASC_NODE": 56.7624, "ARG_OF_PERICENTER": 90.2871, "MEAN_ANOMALY": 269.8431, "EPHEMERIS_TYPE": 0, "CLASSIFICATION_TYPE": "U", "NORAD_CAT_ID": 40697, "ELEMENT_SET_NO": 999, "REV_AT_EPOCH": 54670, "BSTAR": 8.8693e-05, "MEAN_MOTION_DOT": 1.89e-06, "MEAN_MOTION_DDOT": 0}, "tle": {"line1": "1 40697U 15028A   25344.19368900  .00000189  00000+0  88693-4 0  9991", "line2": "2 40697  98.5691  56.7624 0001043  90.2871 269.8431 14.30825658546708"}}, "geometry": {"type": "Point", "coordinates": [42.56559839284034, 58.797388694566905]}}, {"type": "Feature", "properties": {"norad_id": 40701, "name": "GAOFEN-8", "group": "resource", "lat": -71.3125665630863, "lon": -174.00620514960818, "alt_km": 464.2766955034376, "timestamp": "2025-12-10T09:57:44.361584+00:00", "meta": {"OBJECT_NAME": "GAOFEN-8", "OBJECT_ID": "2015-030A", "EPOCH": "2025-12-10T04:02:07.041120", "MEAN_MOTION": 15.38397537, "ECCENTRICITY": 0.0011524, "INCLINATION": 97.6915, "RA_OF_ASC_NODE": 162.1835, "ARG_OF_PERICENTER": 146.7005, "MEAN_ANOMALY": 213.4967, "EPHEMERIS_TYPE": 0, "CLASSIFICATION_TYPE": "U", "NORAD_CAT_ID": 40701, "ELEMENT_SET_NO": 999, "REV_AT_EPOCH": 58231, "BSTAR": 0.00032318, "MEAN_MOTION_DOT": 0.0001218, "MEAN_MOTION_DDOT": 0}, "tle": {"line1": "1 40701U 15030A   25344.16813705  .00012180  00000+0  32318-3 0  9991", "line2": "2 40701  97.6915 162.1835 0011524 146.7005 213.4967 15.38397537582315"}}, "geometry": {"type": "Point", "coordinates": [-174.00620514960818, -71.3125665630863]}}, {"type": "Feature", "properties": {"norad_id": 40718, "name": "CARBONITE 1 (CBNT-1)", "group": "resource", "lat": -35.273916800525136, "lon": 171.01051925619154, "alt_km": 634.1243089526133, "timestamp": "2025-12-10T09:57:44.361594+00:00", "meta": {"OBJECT_NAME": "CARBONITE 1 (CBNT-1)", "OBJECT_ID": "2015-032D", "EPOCH": "2025-12-10T03:38:40.430112", "MEAN_MOTION": 14.82721646, "ECCENTRICITY": 0.0014165, "INCLINATION": 97.6406, "RA_OF_ASC_NODE": 165.3102, "ARG_OF_PERICENTER": 189.7634, "MEAN_ANOMALY": 170.3307, "EPHEMERIS_TYPE": 0, "CLASSIFICATION_TYPE": "U", "NORAD_CAT_ID": 40718, "ELEMENT_SET_NO": 999, "REV_AT_EPOCH": 56132, "BSTAR": 0.00020136, "MEAN_MOTION_DOT": 1.578e-05, "MEAN_MOTION_DDOT": 0}, "tle": {"line1": "1 40718U 15032D   25344.15185683  .00001578  00000+0  20136-3 0  9991", "line2": "2 40718  97.6406 165.3102 0014165 189.7634 170.3307 14.82721646561326"}}, "geometry": {"type": "Point", "coordinates": [171.01051925619154, -35.273916800525136]}}, {"type": "Feature", "properties": {"norad_id": 40878, "name": "YAOGAN-27", "group": "resource", "lat": -24.409957560117906, "lon": -21.220519316023108, "alt_km": 1200.8639885185985, "timestamp": "2025-12-10T09:57:44.361604+00:00", "meta": {"OBJECT_NAME": "YAOGAN-27", "OBJECT_ID": "2015-040A", "EPOCH": "2025-12-10T04:36:52.202304", "MEAN_MOTION": 13.16060196, "ECCENTRICITY": 0.0007641, "INCLINATION": 100.1008, "RA_OF_ASC_NODE": 333.9269, "ARG_OF_PERICENTER": 293.1704, "MEAN_ANOMALY": 66.8605, "EPHEMERIS_TYPE": 0, "CLASSIFICATION_TYPE": "U", "NORAD_CAT_ID": 40878, "ELEMENT_SET_NO": 999, "REV_AT_EPOCH": 49280, "BSTAR": 0.00082845, "MEAN_MOTION_DOT": 2.72e-06, "MEAN_MOTION_DDOT": 0}, "tle": {"line1": "1 40878U 15040A   25344.19227086  .00000272  00000+0  82845-3 0  9990", "line2": "2 40878 100.1008 333.9269 0007641 293.1704  66.8605 13.16060196492805"}}, "geometry": {"type": "Point", "coordinates": [-21.220519316023108, -24.409957560117906]}}, {"type": "Feature", "properties": {"norad_id": 40894, "name": "GAOFEN-9 01", "group": "resource", "lat": -66.51259228689194, "lon": -174.5572883424043, "alt_km": 646.9367166132542, "timestamp": "2025-12-10T09:57:44.361615+00:00", "meta": {"OBJECT_NAME": "GAOFEN-9 01", "OBJECT_ID": "2015-047A", "EPOCH": "2025-12-10T03:59:19.447584", "MEAN_MOTION": 14.82411374, "ECCENTRICITY": 0.0028579, "INCLINATION": 97.6545, "RA_OF_ASC_NODE": 23.2328, "ARG_OF_PERICENTER": 42.4224, "MEAN_ANOMALY": 317.9192, "EPHEMERIS_TYPE": 0, "CLASSIFICATION_TYPE": "U", "NORAD_CAT_ID": 40894, "ELEMENT_SET_NO": 999, "REV_AT_EPOCH": 55218, "BSTAR": 0.00022099, "MEAN_MOTION_DOT": 1.732e-05, "MEAN_MOTION_DDOT": 0}, "tle": {"line1": "1 40894U 15047A   25344.16619731  .00001732  00000+0  22099-3 0  9991", "line2": "2 40894  97.6545  23.2328 0028579  42.4224 317.9192 14.82411374552180"}}, "geometry": {"type": "Point", "coordinates": [-174.5572883424043, -66.51259228689194]}}, {"type": "Feature", "properties": {"norad_id": 41026, "name": "YAOGAN-28", "group": "resource", "lat": 48.35237769399707, "lon": 114.00768705982503, "alt_km": 487.8474152362751, "timestamp": "2025-12-10T09:57:44.361625+00:00", "meta": {"OBJECT_NAME": "YAOGAN-28", "OBJECT_ID": "2015-064A", "EPOCH": "2025-12-10T05:01:18.780096", "MEAN_MOTION": 15.24283161, "ECCENTRICITY": 0.0012258, "INCLINATION": 97.2807, "RA_OF_ASC_NODE": 122.0732, "ARG_OF_PERICENTER": 134.3106, "MEAN_ANOMALY": 225.9139, "EPHEMERIS_TYPE": 0, "CLASSIFICATION_TYPE": "U", "NORAD_CAT_ID": 41026, "ELEMENT_SET_NO": 999, "REV_AT_EPOCH": 56186, "BSTAR": 0.000545, "MEAN_MOTION_DOT": 0.00013282, "MEAN_MOTION_DDOT": 0}, "tle": {"line1": "1 41026U 15064A   25344.20924514  .00013282  00000+0  54500-3 0  9996", "line2": "2 41026  97.2807 122.0732 0012258 134.3106 225.9139 15.24283161561861"}}, "geometry": {"type": "Point", "coordinates": [114.00768705982503, 48.35237769399707]}}, {"type": "Feature", "properties": {"norad_id": 41038, "name": "YAOGAN-29", "group": "resource", "lat": 47.57756168413658, "lon": -163.54352216824597, "alt_km": 616.2408735636682, "timestamp": "2025-12-10T09:57:44.361635+00:00", "meta": {"OBJECT_NAME": "YAOGAN-29", "OBJECT_ID": "2015-069A", "EPOCH": "2025-12-10T04:30:42.985728", "MEAN_MOTION": 14.8287852, "ECCENTRICITY": 3.69e-05, "INCLINATION": 98.0219, "RA_OF_ASC_NODE": 7.3512, "ARG_OF_PERICENTER": 351.0679, "MEAN_ANOMALY": 9.0527, "EPHEMERIS_TYPE": 0, "CLASSIFICATION_TYPE": "U", "NORAD_CAT_ID": 41038, "ELEMENT_SET_NO": 999, "REV_AT_EPOCH": 54261, "BSTAR": 9.2522e-05, "MEAN_MOTION_DOT": 6.95e-06, "MEAN_MOTION_DDOT": 0}, "tle": {"line1": "1 41038U 15069A   25344.18799752  .00000695  00000+0  92522-4 0  9996", "line2": "2 41038  98.0219   7.3512 0000369 351.0679   9.0527 14.82878520542610"}}, "geometry": {"type": "Point", "coordinates": [-163.54352216824597, 47.57756168413658]}}, {"type": "Feature", "properties": {"norad_id": 41167, "name": "KENT RIDGE 1", "group": "resource", "lat": 2.5045459722148586, "lon": -122.18843572258429, "alt_km": 497.67717556401476, "timestamp": "2025-12-10T09:57:44.361645+00:00", "meta": {"OBJECT_NAME": "KENT RIDGE 1", "OBJECT_ID": "2015-077B", "EPOCH": "2025-12-09T22:54:25.386336", "MEAN_MOTION": 15.21601282, "ECCENTRICITY": 0.000855, "INCLINATION": 14.9787, "RA_OF_ASC_NODE": 231.8092, "ARG_OF_PERICENTER": 91.1625, "MEAN_ANOMALY": 268.9676, "EPHEMERIS_TYPE": 0, "CLASSIFICATION_TYPE": "U", "NORAD_CAT_ID": 41167, "ELEMENT_SET_NO": 999, "REV_AT_EPOCH": 55221, "BSTAR": 0.00024157, "MEAN_MOTION_DOT": 6.38e-05, "MEAN_MOTION_DDOT": 0}, "tle": {"line1": "1 41167U 15077B   25343.95446049  .00006380  00000+0  24157-3 0  9995", "line2": "2 41167  14.9787 231.8092 0008550  91.1625 268.9676 15.21601282552211"}}, "geometry": {"type": "Point", "coordinates": [-122.18843572258429, 2.5045459722148586]}}, {"type": "Feature", "properties": {"norad_id": 41194, "name": "GAOFEN-4", "group": "resource", "lat": -0.15945162260491327, "lon": -25.45151850350977, "alt_km": 35799.1823517859, "timestamp": "2025-12-10T09:57:44.361657+00:00", "meta": {"OBJECT_NAME": "GAOFEN-4", "OBJECT_ID": "2015-083A", "EPOCH": "2025-12-10T00:37:38.700768", "MEAN_MOTION": 1.00270529, "ECCENTRICITY": 0.0003605, "INCLINATION": 0.1638, "RA_OF_ASC_NODE": 80.7414, "ARG_OF_PERICENTER": 106.8899, "MEAN_ANOMALY": 6.4925, "EPHEMERIS_TYPE": 0, "CLASSIFICATION_TYPE": "U", "NORAD_CAT_ID": 41194, "ELEMENT_SET_NO": 999, "REV_AT_EPOCH": 3663, "BSTAR": 0, "MEAN_MOTION_DOT": -3.32e-06, "MEAN_MOTION_DDOT": 0}, "tle": {"line1": "1 41194U 15083A   25344.02614237 -.00000332  00000+0  00000+0 0  9996", "line2": "2 41194   0.1638  80.7414 0003605 106.8899   6.4925  1.00270529 36638"}}, "geometry": {"type": "Point", "coordinates": [-25.45151850350977, -0.15945162260491327]}}, {"type": "Feature", "properties": {"norad_id": 41240, "name": "JASON-3", "group": "resource", "lat": -21.15429370116183, "lon": 152.8037503958361, "alt_km": 1312.9914871281226, "timestamp": "2025-12-10T09:57:44.361668+00:00", "meta": {"OBJECT_NAME": "JASON-3", "OBJECT_ID": "2016-002A", "EPOCH": "2025-12-10T02:37:35.232384", "MEAN_MOTION": 12.87626372, "ECCENTRICITY": 0.0007151, "INCLINATION": 66.0389, "RA_OF_ASC_NODE": 163.3542, "ARG_OF_PERICENTER": 270.643, "MEAN_ANOMALY": 89.377, "EPHEMERIS_TYPE": 0, "CLASSIFICATION_TYPE": "U", "NORAD_CAT_ID": 41240, "ELEMENT_SET_NO": 999, "REV_AT_EPOCH": 46290, "BSTAR": 5.8144e-05, "MEAN_MOTION_DOT": -4.8e-07, "MEAN_MOTION_DDOT": 0}, "tle": {"line1": "1 41240U 16002A   25344.10943556 -.00000048  00000+0  58144-4 0  9999", "line2": "2 41240  66.0389 163.3542 0007151 270.6430  89.3770 12.87626372462904"}}, "geometry": {"type": "Point", "coordinates": [152.8037503958361, -21.15429370116183]}}]}